CCSDS_OMM_VERS = 2.0
CREATION_DATE  = 
ORIGINATOR     = 

OBJECT_NAME    = STARLINK-35737
OBJECT_ID      = 2025-244P
CENTER_NAME    = EARTH
REF_FRAME      = TEME
TIME_SYSTEM    = UTC
MEAN_ELEMENT_THEORY = SGP/SGP4

EPOCH          = 2025-11-23T20:00:01.999008
MEAN_MOTION    = 15.39611445
ECCENTRICITY   = .0001012
INCLINATION    = 53.1600
RA_OF_ASC_NODE = 5.0016
ARG_OF_PERICENTER = 63.3658
MEAN_ANOMALY   = 328.6817

EPHEMERIS_TYPE = 0
CLASSIFICATION_TYPE = U
NORAD_CAT_ID   = 66219
ELEMENT_SET_NO = 999
REV_AT_EPOCH   = 533
BSTAR          = .35987E-3
MEAN_MOTION_DOT = .14017E-3
MEAN_MOTION_DDOT = 0

CCSDS_OMM_VERS = 2.0
CREATION_DATE  = 
ORIGINATOR     = 

OBJECT_NAME    = STARLINK-35677
OBJECT_ID      = 2025-244Q
CENTER_NAME    = EARTH
REF_FRAME      = TEME
TIME_SYSTEM    = UTC
MEAN_ELEMENT_THEORY = SGP/SGP4

EPOCH          = 2025-11-23T14:54:30.695040
MEAN_MOTION    = 15.48315348
ECCENTRICITY   = .0023697
INCLINATION    = 53.1599
RA_OF_ASC_NODE = 5.8730
ARG_OF_PERICENTER = 30.3047
MEAN_ANOMALY   = 329.9326

EPHEMERIS_TYPE = 0
CLASSIFICATION_TYPE = U
NORAD_CAT_ID   = 66220
ELEMENT_SET_NO = 999
REV_AT_EPOCH   = 537
BSTAR          = .21944E-1
MEAN_MOTION_DOT = .1316751E-1
MEAN_MOTION_DDOT = 0

CCSDS_OMM_VERS = 2.0
CREATION_DATE  = 
ORIGINATOR     = 

OBJECT_NAME    = STARLINK-35704
OBJECT_ID      = 2025-244R
CENTER_NAME    = EARTH
REF_FRAME      = TEME
TIME_SYSTEM    = UTC
MEAN_ELEMENT_THEORY = SGP/SGP4

EPOCH          = 2025-11-23T20:00:01.999008
MEAN_MOTION    = 15.41390876
ECCENTRICITY   = .000133
INCLINATION    = 53.1595
RA_OF_ASC_NODE = 4.9008
ARG_OF_PERICENTER = 65.3611
MEAN_ANOMALY   = 17.0545

EPHEMERIS_TYPE = 0
CLASSIFICATION_TYPE = U
NORAD_CAT_ID   = 66221
ELEMENT_SET_NO = 999
REV_AT_EPOCH   = 517
BSTAR          = -.56989E-1
MEAN_MOTION_DOT = -.2135873E-1
MEAN_MOTION_DDOT = 0

CCSDS_OMM_VERS = 2.0
CREATION_DATE  = 
ORIGINATOR     = 

OBJECT_NAME    = STARLINK-35666
OBJECT_ID      = 2025-244S
CENTER_NAME    = EARTH
REF_FRAME      = TEME
TIME_SYSTEM    = UTC
MEAN_ELEMENT_THEORY = SGP/SGP4

EPOCH          = 2025-11-22T09:27:36.840960
MEAN_MOTION    = 15.49336315
ECCENTRICITY   = .00010629
INCLINATION    = 53.1602
RA_OF_ASC_NODE = 11.7237
ARG_OF_PERICENTER = 94.1773
MEAN_ANOMALY   = 265.9358

EPHEMERIS_TYPE = 0
CLASSIFICATION_TYPE = U
NORAD_CAT_ID   = 66222
ELEMENT_SET_NO = 999
REV_AT_EPOCH   = 518
BSTAR          = .78291247E-3
MEAN_MOTION_DOT = .43378E-3
MEAN_MOTION_DDOT = 0

CCSDS_OMM_VERS = 2.0
CREATION_DATE  = 
ORIGINATOR     = 

OBJECT_NAME    = STARLINK-35664
OBJECT_ID      = 2025-244T
CENTER_NAME    = EARTH
REF_FRAME      = TEME
TIME_SYSTEM    = UTC
MEAN_ELEMENT_THEORY = SGP/SGP4

EPOCH          = 2025-11-23T20:00:01.999008
MEAN_MOTION    = 15.44163823
ECCENTRICITY   = .0001103
INCLINATION    = 53.1595
RA_OF_ASC_NODE = 4.8677
ARG_OF_PERICENTER = 70.3648
MEAN_ANOMALY   = 28.8976

EPHEMERIS_TYPE = 0
CLASSIFICATION_TYPE = U
NORAD_CAT_ID   = 66223
ELEMENT_SET_NO = 999
REV_AT_EPOCH   = 528
BSTAR          = -.4876E-1
MEAN_MOTION_DOT = -.2021765E-1
MEAN_MOTION_DDOT = 0

CCSDS_OMM_VERS = 2.0
CREATION_DATE  = 
ORIGINATOR     = 

OBJECT_NAME    = STARLINK-35733
OBJECT_ID      = 2025-244U
CENTER_NAME    = EARTH
REF_FRAME      = TEME
TIME_SYSTEM    = UTC
MEAN_ELEMENT_THEORY = SGP/SGP4

EPOCH          = 2025-11-23T14:51:43.352064
MEAN_MOTION    = 15.48796329
ECCENTRICITY   = .0001179
INCLINATION    = 53.1598
RA_OF_ASC_NODE = 5.8591
ARG_OF_PERICENTER = 58.7930
MEAN_ANOMALY   = 301.3195

EPHEMERIS_TYPE = 0
CLASSIFICATION_TYPE = U
NORAD_CAT_ID   = 66224
ELEMENT_SET_NO = 999
REV_AT_EPOCH   = 537
BSTAR          = -.18089E-2
MEAN_MOTION_DOT = -.98023E-3
MEAN_MOTION_DDOT = 0

CCSDS_OMM_VERS = 2.0
CREATION_DATE  = 
ORIGINATOR     = 

OBJECT_NAME    = STARLINK-35734
OBJECT_ID      = 2025-244V
CENTER_NAME    = EARTH
REF_FRAME      = TEME
TIME_SYSTEM    = UTC
MEAN_ELEMENT_THEORY = SGP/SGP4

EPOCH          = 2025-11-23T14:52:16.497696
MEAN_MOTION    = 15.48482102
ECCENTRICITY   = .0000711
INCLINATION    = 53.1594
RA_OF_ASC_NODE = 5.8606
ARG_OF_PERICENTER = 55.9012
MEAN_ANOMALY   = 304.2064

EPHEMERIS_TYPE = 0
CLASSIFICATION_TYPE = U
NORAD_CAT_ID   = 66225
ELEMENT_SET_NO = 999
REV_AT_EPOCH   = 537
BSTAR          = -.54016E-2
MEAN_MOTION_DOT = -.281952E-2
MEAN_MOTION_DDOT = 0

CCSDS_OMM_VERS = 2.0
CREATION_DATE  = 
ORIGINATOR     = 

OBJECT_NAME    = STARLINK-34466
OBJECT_ID      = 2025-244W
CENTER_NAME    = EARTH
REF_FRAME      = TEME
TIME_SYSTEM    = UTC
MEAN_ELEMENT_THEORY = SGP/SGP4

EPOCH          = 2025-11-23T11:45:17.638272
MEAN_MOTION    = 15.49328144
ECCENTRICITY   = .0002082
INCLINATION    = 53.1598
RA_OF_ASC_NODE = 6.4727
ARG_OF_PERICENTER = 52.4913
MEAN_ANOMALY   = 307.6285

EPHEMERIS_TYPE = 0
CLASSIFICATION_TYPE = U
NORAD_CAT_ID   = 66226
ELEMENT_SET_NO = 999
REV_AT_EPOCH   = 535
BSTAR          = .11735E-2
MEAN_MOTION_DOT = .65414E-3
MEAN_MOTION_DDOT = 0

CCSDS_OMM_VERS = 2.0
CREATION_DATE  = 
ORIGINATOR     = 

OBJECT_NAME    = STARLINK-34882
OBJECT_ID      = 2025-244X
CENTER_NAME    = EARTH
REF_FRAME      = TEME
TIME_SYSTEM    = UTC
MEAN_ELEMENT_THEORY = SGP/SGP4

EPOCH          = 2025-11-23T11:44:47.772384
MEAN_MOTION    = 15.49344501
ECCENTRICITY   = .0001521
INCLINATION    = 53.1597
RA_OF_ASC_NODE = 6.4696
ARG_OF_PERICENTER = 55.7690
MEAN_ANOMALY   = 304.3463

EPHEMERIS_TYPE = 0
CLASSIFICATION_TYPE = U
NORAD_CAT_ID   = 66227
ELEMENT_SET_NO = 999
REV_AT_EPOCH   = 535
BSTAR          = .12109E-2
MEAN_MOTION_DOT = .67566E-3
MEAN_MOTION_DDOT = 0

CCSDS_OMM_VERS = 2.0
CREATION_DATE  = 
ORIGINATOR     = 

OBJECT_NAME    = STARLINK-35731
OBJECT_ID      = 2025-244Y
CENTER_NAME    = EARTH
REF_FRAME      = TEME
TIME_SYSTEM    = UTC
MEAN_ELEMENT_THEORY = SGP/SGP4

EPOCH          = 2025-11-23T11:44:18.190752
MEAN_MOTION    = 15.49345626
ECCENTRICITY   = .0001821
INCLINATION    = 53.1596
RA_OF_ASC_NODE = 6.4676
ARG_OF_PERICENTER = 51.9653
MEAN_ANOMALY   = 308.1520

EPHEMERIS_TYPE = 0
CLASSIFICATION_TYPE = U
NORAD_CAT_ID   = 66228
ELEMENT_SET_NO = 999
REV_AT_EPOCH   = 535
BSTAR          = .16284E-2
MEAN_MOTION_DOT = .913E-3
MEAN_MOTION_DDOT = 0

CCSDS_OMM_VERS = 2.0
CREATION_DATE  = 
ORIGINATOR     = 

OBJECT_NAME    = STARLINK-35758
OBJECT_ID      = 2025-244Z
CENTER_NAME    = EARTH
REF_FRAME      = TEME
TIME_SYSTEM    = UTC
MEAN_ELEMENT_THEORY = SGP/SGP4

EPOCH          = 2025-11-23T11:43:48.488160
MEAN_MOTION    = 15.49336594
ECCENTRICITY   = .0001231
INCLINATION    = 53.1596
RA_OF_ASC_NODE = 6.4658
ARG_OF_PERICENTER = 77.5722
MEAN_ANOMALY   = 282.5424

EPHEMERIS_TYPE = 0
CLASSIFICATION_TYPE = U
NORAD_CAT_ID   = 66229
ELEMENT_SET_NO = 999
REV_AT_EPOCH   = 535
BSTAR          = .1494E-2
MEAN_MOTION_DOT = .83615E-3
MEAN_MOTION_DDOT = 0

CCSDS_OMM_VERS = 2.0
CREATION_DATE  = 
ORIGINATOR     = 

OBJECT_NAME    = STARLINK-35736
OBJECT_ID      = 2025-244AA
CENTER_NAME    = EARTH
REF_FRAME      = TEME
TIME_SYSTEM    = UTC
MEAN_ELEMENT_THEORY = SGP/SGP4

EPOCH          = 2025-11-23T11:43:18.599808
MEAN_MOTION    = 15.49350428
ECCENTRICITY   = .0001029
INCLINATION    = 53.1597
RA_OF_ASC_NODE = 6.4631
ARG_OF_PERICENTER = 84.4659
MEAN_ANOMALY   = 275.6467

EPHEMERIS_TYPE = 0
CLASSIFICATION_TYPE = U
NORAD_CAT_ID   = 66230
ELEMENT_SET_NO = 999
REV_AT_EPOCH   = 535
BSTAR          = .13755E-2
MEAN_MOTION_DOT = .76921E-3
MEAN_MOTION_DDOT = 0

