STARLINK-35737          
1 66219U 25244P   25327.83335647  .00014017  00000+0  35987-3 0  9996
2 66219  53.1600   5.0016 0001012  63.3658 328.6817 15.39611445  5333
STARLINK-35677          
1 66220U 25244Q   25327.62118860  .01316751  00000+0  21944-1 0  9998
2 66220  53.1599   5.8730 0023697  30.3047 329.9326 15.48315348  5378
STARLINK-35704          
1 66221U 25244R   25327.83335647 -.02135873  00000+0 -56989-1 0  9990
2 66221  53.1595   4.9008 0001330  65.3611  17.0545 15.41390876  5176
STARLINK-35666          
1 66222U 25244S   25326.39417640  .00043378  00000+0  78291-3 0  9991
2 66222  53.1602  11.7237 0001062  94.1773 265.9358 15.49336315  5180
STARLINK-35664          
1 66223U 25244T   25327.83335647 -.02021765  00000+0 -48760-1 0  9994
2 66223  53.1595   4.8677 0001103  70.3648  28.8976 15.44163823  5286
STARLINK-35733          
1 66224U 25244U   25327.61925176 -.00098023  00000+0 -18089-2 0  9994
2 66224  53.1598   5.8591 0001179  58.7930 301.3195 15.48796329  5372
STARLINK-35734          
1 66225U 25244V   25327.61963539 -.00281952  00000+0 -54016-2 0  9995
2 66225  53.1594   5.8606 0000711  55.9012 304.2064 15.48482102  5375
STARLINK-34466          
1 66226U 25244W   25327.48978748  .00065414  00000+0  11735-2 0  9991
2 66226  53.1598   6.4727 0002082  52.4913 307.6285 15.49328144  5352
STARLINK-34882          
1 66227U 25244X   25327.48944181  .00067566  00000+0  12109-2 0  9992
2 66227  53.1597   6.4696 0001521  55.7690 304.3463 15.49344501  5359
STARLINK-35731          
1 66228U 25244Y   25327.48909943  .00091300  00000+0  16284-2 0  9991
2 66228  53.1596   6.4676 0001821  51.9653 308.1520 15.49345626  5352
STARLINK-35758          
1 66229U 25244Z   25327.48875565  .00083615  00000+0  14940-2 0  9991
2 66229  53.1596   6.4658 0001231  77.5722 282.5424 15.49336594  5351
STARLINK-35736          
1 66230U 25244AA  25327.48840972  .00076921  00000+0  13755-2 0  9992
2 66230  53.1597   6.4631 0001029  84.4659 275.6467 15.49350428  5358
